#dP2023 11 18  0  0  0.00000000      96 __u+U IGS20 FIT  IAC
## 2288 518400.00000000   900.00000000 60266 0.0000000000000
+  118   C06C07C08C09C10C11C12C13C14C16C19C20C21C22C23C24C25
+        C26C27C28C29C30C32C33C34C35C36C37C38C39C40C41C42C43
+        C44C45C46E02E03E04E05E07E08E09E10E11E12E13E15E19E21
+        E24E25E26E27E30E31E33E34E36G01G02G03G04G05G06G07G08
+        G09G10G11G12G13G14G15G16G17G18G19G20G21G22G23G24G25
+        G26G27G28G29G30G31G32J02J03J04R01R02R03R04R05R07R08
+        R09R11R12R13R14R15R16R17R18R19R20R21R22R24R25R26  0
++         8  9  6  8  8  6  7  8  8  8  6  6  8  6  6  6  7
++         7  6  7  7  6  7  8  8  7  6  8  8  9  9  7  5  7
++         7  7  6  6  6  7  6  6  7  7  6  6  6  6  6  7  6
++         6  9  7  6  6  6  6  6  6  6  6  7  6  6  5  6  7
++         6  6  6  6  6  7  6  7  5  6  5  7  6  6  6  6  7
++         7  6  6  6  6  6  6  8  7  6  7  6  8  7  7  6  7
++         6  7  7  6  8  8  6  6  6  7  8  6  7  7  6  7  0
%c M  cc GPS ccc cccc cccc cccc cccc ccccc ccccc ccccc ccccc
%c cc cc ccc ccc cccc cccc cccc cccc ccccc ccccc ccccc ccccc
%f  0.0000000  0.000000000  0.00000000000  0.000000000000000
%f  0.0000000  0.000000000  0.00000000000  0.000000000000000
%i    0    0    0    0      0      0      0      0         0
%i    0    0    0    0      0      0      0      0         0
/* INFORMATION & ANALYSIS CENTER (IAC)      ULTRA-RAPID DATA
/* S/V CLOCKS ARE ALIGNED TO GNSS TIME                      
/* G:C1WC2W R:C1PC2P E:C1XC5X C:C2IC6I J:C1CC2S             
/* PCV:IGS20_2287 OL/AL:FES2004  NONE     YN ORB:CoN CLK:CoN
*  2023 11 18  9 45  0.00000000
PC06 -18303.514194  30467.797947  22482.168580     28.773662
PC07  -5895.977112  39228.857201  14663.802712   -337.092569
PC08  -3118.593741  20881.860763 -36484.284741    233.529990
PC09  -9062.981153  29090.234229  29319.394680   -104.352975
PC10    833.474241  41788.016043   7788.824628    -21.377366
PC11 -21942.304751  14792.642566   8968.708386    262.134233
PC12 -17487.521891  -2220.744903  21683.003525    855.040896
PC13   3141.130026  24067.027840 -34266.893553    384.238239
PC14 -13688.407638   8141.359034 -22911.141734    807.322146
PC16 -21439.510256  30131.098972  20202.109898   -181.439669
PC19   8320.439283 -17528.771348  20068.018784   -967.325943
PC20  16422.703955    783.165605  22555.205347    106.424001
PC21 -15260.181656 -20285.490634 -11568.142347   -969.637230
PC22  -5022.702124 -26811.160377   5839.332479   -220.621199
PC23   1657.721690  16710.748903  22285.478008   -819.298507
PC24 -27516.826513  -2307.343096   4127.640166    607.893682
PC25 -17232.819882  10959.393366  19014.767655    258.329519
PC26 -21724.438587 -12610.011068 -12215.185679   -207.869362
PC27  12008.242874  10558.314550 -22885.323066    229.797962
PC28  -3078.513523  21688.669407 -17281.297093    173.457039
PC29  17825.217958 -21468.627019   -296.087052    202.941221
PC30  21075.208480  -7021.659048 -16904.444021     -8.572861
PC32  15399.365377  20255.361511  11473.613456   -535.665328
PC33  -8285.491573  17512.113852 -20091.639404   -944.470011
PC34 -21350.535779   8372.007321  15881.283724    305.964518
PC35   2148.376647 -21805.850377  17293.213208    500.255597
PC36  18222.296127 -10081.719944 -18551.491083   -129.413641
PC37  20879.508716  13384.638584  12769.383301   -890.936155
PC38 -12321.799557  19308.509980 -35379.188823    118.475871
PC39 -23648.084675  30985.248892  15808.873598     -5.709417
PC40 -10457.977026  36783.395668  18082.163969    -44.439356
PC41   4629.507458  26726.848135  -6516.439068   -871.427485
PC42 -16790.011299  -2454.124826 -22114.380043   -496.996508
PC43 -18293.268955  21028.812037   1159.370038     48.746273
PC44 -12338.147685 -10381.501328  22766.995774    296.390617
PC45  -2355.141043 -16663.357113 -22270.208476    -47.179139
PC46  27338.660404   1571.048297  -5258.083739   -100.674923
PE02   5362.377198  22696.267883  18213.786149     79.419899
PE03  -3091.987601  28909.570951   5562.135149    -74.261130
PE04 -10335.785013 -18537.801761 -20634.936083   -260.188028
PE05 -14615.616374  22443.512708 -12603.395999   4692.029568
PE07  17640.226631  -2298.186471  23655.143712    -88.424787
PE08   9899.842116  19001.244892  20418.758436   -178.815473
PE09 -17489.935469   2198.043859 -23785.629743   -231.911974
PE10 -24467.024824  -3730.938534  16244.890783   -579.759003
PE11 -28550.238635   3554.593181   6944.291885   3213.624459
PE12 -17133.719295  -9880.794245  22021.607492   -782.013234
PE13  28421.557468  -3123.020803  -7648.391733    -19.607801
PE15  16669.895583  10066.995827 -22280.753161    -69.944309
PE19   4920.642872 -29007.930974  -3278.488153  -1191.216734
PE21  12175.001433 -11558.993114 -24378.909700   -564.719527
PE24 -23638.788199  -7373.348751  16224.573742   -438.123313
PE25 -12504.816632  11231.443387  24370.492465     -3.255694
PE26  22886.806170 -14607.870301  11788.200430    284.379839
PE27  23507.517801   6825.587375 -16629.959748   -202.811296
PE30  20621.978548  21189.682722   1142.344957   -671.667185
PE31 -20871.561956 -20980.334226   -819.361448    -10.218452
PE33   5329.101876 -17237.231461  23470.240974      2.576566
PE34  -4651.739363  17184.186107 -23649.953852    -78.594792
PE36 -23379.097259  14272.461112 -11212.090788   -145.664627
PG01    441.547178  14969.404333 -22247.914203    163.217652
PG02  -6012.212807  16512.255037 -19348.985806   -527.396178
PG03   8785.577572  21200.934589 -13607.060355     -6.252474
PG04    339.034777  24461.730401  10185.025719    216.109323
PG05   3528.950295 -15909.324913  20776.440726   -150.829280
PG06  25873.658948  -6037.137038  -1504.715073    502.793958
PG07  18345.133451   8216.699932  18069.464934     10.397287
PG08  -4743.208896  25876.881118  -1249.738378   -152.665910
PG09   8920.646487  17468.729851  17795.101364      0.545086
PG10 -21350.809028  -7759.946401 -13841.501628    -61.853551
PG11  21466.567777 -12049.439718   9924.424365   -465.065146
PG12  -5840.026197 -21631.262464 -14599.244811   -448.255760
PG13  13464.926836 -21826.401635   6261.153255    596.539293
PG14  21684.017685  10800.620833 -11066.943373    246.579056
PG15   1038.076493 -26367.873470  -2113.681560     98.295440
PG16 -10376.493956  10881.882120  21558.662391   -420.000398
PG17  14654.703586   2530.474670 -21576.573696    723.119435
PG18 -19460.113282  -6702.898458  16901.571108   -482.441465
PG19  16707.459398  -6439.568250 -19692.354385    400.533346
PG20  14669.895981  -7881.416108  20701.428971    401.037566
PG21  -8900.492914  16675.461267 -17748.111159    143.959332
PG22  19633.545725   5181.421968 -16521.355877     81.758118
PG23 -20763.167244 -16508.569729  -2680.174056    100.911461
PG24   3781.456356 -17361.674639 -20020.185641   -373.978441
PG25 -16725.689996 -20343.446313  -4756.530164    477.898984
PG26 -17794.663101   3818.049315  19325.511112    215.820845
PG27 -12715.850373  20215.353050  10903.145522    -71.553277
PG28 -25708.755267   5532.180328  -3765.044194    -48.866415
PG29  -6714.557479 -18348.739583  17900.043764   -610.194969
PG30  24738.559812    806.434269  10105.774918   -466.993802
PG31 -24417.515801   9845.260574   4712.138167   -225.847038
PG32 -15683.065233   2020.460867 -21124.658696   -587.072461
PJ02 -25765.257676  22654.442253  29676.317614     -0.208552
PJ03 -35193.995530  22022.281762  -2595.460439     -8.655415
PJ04 -19800.603322  27604.450607 -19924.295791     72.575011
PR01 -11069.108729    327.422217 -22983.314184     70.093692
PR02  -5554.117029  17971.137044 -17151.771960    -22.341682
PR03   3145.845432  25237.045249  -1395.655624     89.261976
PR04   9543.980844  18507.102440  14741.498536    211.575938
PR05  10998.150877   1794.217774  22948.472777    122.399742
PR07  -3478.486271 -25294.449814    648.679342     69.384621
PR08  -9759.762181 -18361.854049 -14749.529984    -73.327273
PR09  11831.950718  -7060.717299 -21467.071110    153.869710
PR11 -20064.681841 -12434.599010  -9640.191761   -214.034755
PR12 -23303.465187  -4035.634483   9600.904690     33.546362
PR13 -13784.352301   5497.558147  20731.680069    -41.426845
PR14   6240.459638  13205.846989  20925.694073     25.553843
PR15  20743.479419  12300.722035   8332.080630     84.675812
PR16  23400.792558   4150.515235  -9301.043399     20.723785
PR17  -5859.995097  15760.158617 -19184.164788     35.930638
PR18   9119.246663   6074.657549 -23015.900442    112.542766
PR19  19065.987419  -4890.165976 -16212.284655   -255.081414
PR20  19483.075293 -16078.591485   3690.667362   -103.728705
PR21   5336.592225 -15372.212597  19638.926136    -54.309668
PR22  -9988.092796  -6013.097018  22718.016880     94.088130
PR24 -18552.566867  17010.304563  -4181.124738    -32.601771
PR25   6287.214857 -15667.766312  19122.655471     -5.191815
PR26  -9732.904451 -18708.715780 -14322.409945    -16.211298
EOF
